[{"OBJECT_NAME":"STARLINK-36353","OBJECT_ID":"2026-032Z","EPOCH":"2026-03-03T12:00:00.998784","MEAN_MOTION":15.75172719,"ECCENTRICITY":0.0001532,"INCLINATION":97.2845,"RA_OF_ASC_NODE":248.7439,"ARG_OF_PERICENTER":82.2243,"MEAN_ANOMALY":262.2979,"EPHEMERIS_TYPE":0,"CLASSIFICATION_TYPE":"U","NORAD_CAT_ID":67820,"ELEMENT_SET_NO":999,"REV_AT_EPOCH":378,"BSTAR":0.00024615,"MEAN_MOTION_DOT":0.00036716,"MEAN_MOTION_DDOT":0},{"OBJECT_NAME":"STARLINK-36644","OBJECT_ID":"2026-033A","EPOCH":"2026-03-03T03:04:59.294784","MEAN_MOTION":15.82049789,"ECCENTRICITY":0.0001766,"INCLINATION":42.9976,"RA_OF_ASC_NODE":311.7368,"ARG_OF_PERICENTER":268.532,"MEAN_ANOMALY":91.5349,"EPHEMERIS_TYPE":0,"CLASSIFICATION_TYPE":"U","NORAD_CAT_ID":67821,"ELEMENT_SET_NO":999,"REV_AT_EPOCH":358,"BSTAR":0.00068947,"MEAN_MOTION_DOT":0.00147374,"MEAN_MOTION_DDOT":0},{"OBJECT_NAME":"STARLINK-36643","OBJECT_ID":"2026-033B","EPOCH":"2026-03-03T03:03:54.319392","MEAN_MOTION":15.82113169,"ECCENTRICITY":0.0002063,"INCLINATION":42.9973,"RA_OF_ASC_NODE":311.7301,"ARG_OF_PERICENTER":256.1102,"MEAN_ANOMALY":103.9541,"EPHEMERIS_TYPE":0,"CLASSIFICATION_TYPE":"U","NORAD_CAT_ID":67822,"ELEMENT_SET_NO":999,"REV_AT_EPOCH":358,"BSTAR":0.0014236,"MEAN_MOTION_DOT":0.00311683,"MEAN_MOTION_DDOT":0},{"OBJECT_NAME":"STARLINK-36646","OBJECT_ID":"2026-033C","EPOCH":"2026-03-03T03:02:49.664544","MEAN_MOTION":15.82104549,"ECCENTRICITY":0.000198,"INCLINATION":42.9977,"RA_OF_ASC_NODE":311.7236,"ARG_OF_PERICENTER":254.725,"MEAN_ANOMALY":105.3403,"EPHEMERIS_TYPE":0,"CLASSIFICATION_TYPE":"U","NORAD_CAT_ID":67823,"ELEMENT_SET_NO":999,"REV_AT_EPOCH":358,"BSTAR":0.0013269,"MEAN_MOTION_DOT":0.00289615,"MEAN_MOTION_DDOT":0},{"OBJECT_NAME":"STARLINK-36647","OBJECT_ID":"2026-033D","EPOCH":"2026-03-03T03:01:44.893920","MEAN_MOTION":15.82106975,"ECCENTRICITY":0.0002033,"INCLINATION":42.9973,"RA_OF_ASC_NODE":311.7177,"ARG_OF_PERICENTER":258.2573,"MEAN_ANOMALY":101.807,"EPHEMERIS_TYPE":0,"CLASSIFICATION_TYPE":"U","NORAD_CAT_ID":67824,"ELEMENT_SET_NO":999,"REV_AT_EPOCH":358,"BSTAR":0.0013358,"MEAN_MOTION_DOT":0.00291666,"MEAN_MOTION_DDOT":0},{"OBJECT_NAME":"STARLINK-36648","OBJECT_ID":"2026-033E","EPOCH":"2026-03-03T03:00:40.211424","MEAN_MOTION":15.82080927,"ECCENTRICITY":0.0001844,"INCLINATION":42.9976,"RA_OF_ASC_NODE":311.7117,"ARG_OF_PERICENTER":256.6404,"MEAN_ANOMALY":103.4262,"EPHEMERIS_TYPE":0,"CLASSIFICATION_TYPE":"U","NORAD_CAT_ID":67825,"ELEMENT_SET_NO":999,"REV_AT_EPOCH":358,"BSTAR":0.0010194,"MEAN_MOTION_DOT":0.00220334,"MEAN_MOTION_DDOT":0},{"OBJECT_NAME":"STARLINK-35865","OBJECT_ID":"2026-033F","EPOCH":"2026-03-03T02:59:35.286144","MEAN_MOTION":15.82093523,"ECCENTRICITY":0.0002014,"INCLINATION":42.9974,"RA_OF_ASC_NODE":311.7052,"ARG_OF_PERICENTER":277.0529,"MEAN_ANOMALY":83.0113,"EPHEMERIS_TYPE":0,"CLASSIFICATION_TYPE":"U","NORAD_CAT_ID":67826,"ELEMENT_SET_NO":999,"REV_AT_EPOCH":358,"BSTAR":0.0010758,"MEAN_MOTION_DOT":0.00233045,"MEAN_MOTION_DDOT":0},{"OBJECT_NAME":"STARLINK-36289","OBJECT_ID":"2026-033G","EPOCH":"2026-03-03T01:27:35.845920","MEAN_MOTION":15.82117518,"ECCENTRICITY":0.0002219,"INCLINATION":42.9968,"RA_OF_ASC_NODE":312.0869,"ARG_OF_PERICENTER":254.5301,"MEAN_ANOMALY":105.5325,"EPHEMERIS_TYPE":0,"CLASSIFICATION_TYPE":"U","NORAD_CAT_ID":67827,"ELEMENT_SET_NO":999,"REV_AT_EPOCH":357,"BSTAR":0.0013609,"MEAN_MOTION_DOT":0.00297497,"MEAN_MOTION_DDOT":0},{"OBJECT_NAME":"STARLINK-36670","OBJECT_ID":"2026-033H","EPOCH":"2026-03-03T02:57:25.916832","MEAN_MOTION":15.82119318,"ECCENTRICITY":0.0002261,"INCLINATION":42.9974,"RA_OF_ASC_NODE":311.6928,"ARG_OF_PERICENTER":253.5933,"MEAN_ANOMALY":106.469,"EPHEMERIS_TYPE":0,"CLASSIFICATION_TYPE":"U","NORAD_CAT_ID":67828,"ELEMENT_SET_NO":999,"REV_AT_EPOCH":358,"BSTAR":0.0014941,"MEAN_MOTION_DOT":0.00327854,"MEAN_MOTION_DDOT":0},{"OBJECT_NAME":"STARLINK-36144","OBJECT_ID":"2026-033J","EPOCH":"2026-03-03T01:25:26.636448","MEAN_MOTION":15.82052671,"ECCENTRICITY":0.0002335,"INCLINATION":42.9977,"RA_OF_ASC_NODE":312.0739,"ARG_OF_PERICENTER":251.2995,"MEAN_ANOMALY":108.7623,"EPHEMERIS_TYPE":0,"CLASSIFICATION_TYPE":"U","NORAD_CAT_ID":67829,"ELEMENT_SET_NO":999,"REV_AT_EPOCH":357,"BSTAR":0.00070616,"MEAN_MOTION_DOT":0.00151047,"MEAN_MOTION_DDOT":0},{"OBJECT_NAME":"STARLINK-36611","OBJECT_ID":"2026-033K","EPOCH":"2026-03-03T02:55:16.389408","MEAN_MOTION":15.82125485,"ECCENTRICITY":0.0002252,"INCLINATION":42.9971,"RA_OF_ASC_NODE":311.6806,"ARG_OF_PERICENTER":248.0041,"MEAN_ANOMALY":112.0591,"EPHEMERIS_TYPE":0,"CLASSIFICATION_TYPE":"U","NORAD_CAT_ID":67830,"ELEMENT_SET_NO":999,"REV_AT_EPOCH":358,"BSTAR":0.0014942,"MEAN_MOTION_DOT":0.00327994,"MEAN_MOTION_DDOT":0},{"OBJECT_NAME":"STARLINK-36661","OBJECT_ID":"2026-033L","EPOCH":"2026-03-03T02:54:11.529792","MEAN_MOTION":15.82122016,"ECCENTRICITY":0.0002123,"INCLINATION":42.997,"RA_OF_ASC_NODE":311.6745,"ARG_OF_PERICENTER":266.5739,"MEAN_ANOMALY":93.489,"EPHEMERIS_TYPE":0,"CLASSIFICATION_TYPE":"U","NORAD_CAT_ID":67831,"ELEMENT_SET_NO":999,"REV_AT_EPOCH":358,"BSTAR":0.0014405,"MEAN_MOTION_DOT":0.00315673,"MEAN_MOTION_DDOT":0},{"OBJECT_NAME":"STARLINK-36662","OBJECT_ID":"2026-033M","EPOCH":"2026-03-03T12:00:00.998784","MEAN_MOTION":15.8434004,"ECCENTRICITY":0.0002214,"INCLINATION":42.9963,"RA_OF_ASC_NODE":308.591,"ARG_OF_PERICENTER":265.0875,"MEAN_ANOMALY":37.2909,"EPHEMERIS_TYPE":0,"CLASSIFICATION_TYPE":"U","NORAD_CAT_ID":67832,"ELEMENT_SET_NO":999,"REV_AT_EPOCH":366,"BSTAR":0.0004098,"MEAN_MOTION_DOT":0.00096855,"MEAN_MOTION_DDOT":0},{"OBJECT_NAME":"STARLINK-36659","OBJECT_ID":"2026-033N","EPOCH":"2026-03-03T02:53:06.532800","MEAN_MOTION":15.8214388,"ECCENTRICITY":0.0001987,"INCLINATION":42.997,"RA_OF_ASC_NODE":311.6687,"ARG_OF_PERICENTER":252.0121,"MEAN_ANOMALY":108.0534,"EPHEMERIS_TYPE":0,"CLASSIFICATION_TYPE":"U","NORAD_CAT_ID":67833,"ELEMENT_SET_NO":999,"REV_AT_EPOCH":358,"BSTAR":0.0014543,"MEAN_MOTION_DOT":0.00319155,"MEAN_MOTION_DDOT":0},{"OBJECT_NAME":"STARLINK-36655","OBJECT_ID":"2026-033P","EPOCH":"2026-03-03T02:52:02.375616","MEAN_MOTION":15.82084303,"ECCENTRICITY":0.0001782,"INCLINATION":42.997,"RA_OF_ASC_NODE":311.6628,"ARG_OF_PERICENTER":267.8227,"MEAN_ANOMALY":92.2441,"EPHEMERIS_TYPE":0,"CLASSIFICATION_TYPE":"U","NORAD_CAT_ID":67834,"ELEMENT_SET_NO":999,"REV_AT_EPOCH":358,"BSTAR":0.0010856,"MEAN_MOTION_DOT":0.00235123,"MEAN_MOTION_DDOT":0},{"OBJECT_NAME":"STARLINK-36657","OBJECT_ID":"2026-033Q","EPOCH":"2026-03-03T02:50:57.313824","MEAN_MOTION":15.8211727,"ECCENTRICITY":0.0002242,"INCLINATION":42.9972,"RA_OF_ASC_NODE":311.656,"ARG_OF_PERICENTER":269.0071,"MEAN_ANOMALY":91.0544,"EPHEMERIS_TYPE":0,"CLASSIFICATION_TYPE":"U","NORAD_CAT_ID":67835,"ELEMENT_SET_NO":999,"REV_AT_EPOCH":358,"BSTAR":0.0013058,"MEAN_MOTION_DOT":0.00285009,"MEAN_MOTION_DDOT":0},{"OBJECT_NAME":"STARLINK-36650","OBJECT_ID":"2026-033R","EPOCH":"2026-03-03T02:49:52.677120","MEAN_MOTION":15.82108886,"ECCENTRICITY":0.0002058,"INCLINATION":42.9973,"RA_OF_ASC_NODE":311.6498,"ARG_OF_PERICENTER":263.2108,"MEAN_ANOMALY":96.8529,"EPHEMERIS_TYPE":0,"CLASSIFICATION_TYPE":"U","NORAD_CAT_ID":67836,"ELEMENT_SET_NO":999,"REV_AT_EPOCH":358,"BSTAR":0.0012942,"MEAN_MOTION_DOT":0.00282275,"MEAN_MOTION_DDOT":0},{"OBJECT_NAME":"STARLINK-36649","OBJECT_ID":"2026-033S","EPOCH":"2026-03-03T02:48:47.764800","MEAN_MOTION":15.82139507,"ECCENTRICITY":0.0002266,"INCLINATION":42.9971,"RA_OF_ASC_NODE":311.644,"ARG_OF_PERICENTER":273.8874,"MEAN_ANOMALY":86.1739,"EPHEMERIS_TYPE":0,"CLASSIFICATION_TYPE":"U","NORAD_CAT_ID":67837,"ELEMENT_SET_NO":999,"REV_AT_EPOCH":358,"BSTAR":0.0015776,"MEAN_MOTION_DOT":0.00347325,"MEAN_MOTION_DDOT":0},{"OBJECT_NAME":"STARLINK-36654","OBJECT_ID":"2026-033T","EPOCH":"2026-03-03T02:47:43.189440","MEAN_MOTION":15.82102238,"ECCENTRICITY":0.0001947,"INCLINATION":42.9972,"RA_OF_ASC_NODE":311.6377,"ARG_OF_PERICENTER":262.1259,"MEAN_ANOMALY":97.9392,"EPHEMERIS_TYPE":0,"CLASSIFICATION_TYPE":"U","NORAD_CAT_ID":67838,"ELEMENT_SET_NO":999,"REV_AT_EPOCH":358,"BSTAR":0.0012748,"MEAN_MOTION_DOT":0.00277806,"MEAN_MOTION_DDOT":0},{"OBJECT_NAME":"STARLINK-36652","OBJECT_ID":"2026-033U","EPOCH":"2026-03-03T02:46:38.779104","MEAN_MOTION":15.82050635,"ECCENTRICITY":0.0001757,"INCLINATION":42.998,"RA_OF_ASC_NODE":311.6322,"ARG_OF_PERICENTER":269.4578,"MEAN_ANOMALY":90.6092,"EPHEMERIS_TYPE":0,"CLASSIFICATION_TYPE":"U","NORAD_CAT_ID":67839,"ELEMENT_SET_NO":999,"REV_AT_EPOCH":358,"BSTAR":0.00069538,"MEAN_MOTION_DOT":0.0014867,"MEAN_MOTION_DDOT":0},{"OBJECT_NAME":"STARLINK-36651","OBJECT_ID":"2026-033V","EPOCH":"2026-03-03T02:45:33.814080","MEAN_MOTION":15.820902,"ECCENTRICITY":0.0002154,"INCLINATION":42.9975,"RA_OF_ASC_NODE":311.626,"ARG_OF_PERICENTER":240.6168,"MEAN_ANOMALY":119.4489,"EPHEMERIS_TYPE":0,"CLASSIFICATION_TYPE":"U","NORAD_CAT_ID":67840,"ELEMENT_SET_NO":999,"REV_AT_EPOCH":358,"BSTAR":0.0010708,"MEAN_MOTION_DOT":0.00231894,"MEAN_MOTION_DDOT":0},{"OBJECT_NAME":"STARLINK-36656","OBJECT_ID":"2026-033W","EPOCH":"2026-03-03T02:44:28.698720","MEAN_MOTION":15.82142998,"ECCENTRICITY":0.0002732,"INCLINATION":42.9974,"RA_OF_ASC_NODE":311.6195,"ARG_OF_PERICENTER":274.0144,"MEAN_ANOMALY":86.0415,"EPHEMERIS_TYPE":0,"CLASSIFICATION_TYPE":"U","NORAD_CAT_ID":67841,"ELEMENT_SET_NO":999,"REV_AT_EPOCH":358,"BSTAR":0.0016482,"MEAN_MOTION_DOT":0.00363667,"MEAN_MOTION_DDOT":0},{"OBJECT_NAME":"STARLINK-36653","OBJECT_ID":"2026-033X","EPOCH":"2026-03-03T02:43:24.243456","MEAN_MOTION":15.8212871,"ECCENTRICITY":0.0002058,"INCLINATION":42.9974,"RA_OF_ASC_NODE":311.6134,"ARG_OF_PERICENTER":266.7691,"MEAN_ANOMALY":93.2945,"EPHEMERIS_TYPE":0,"CLASSIFICATION_TYPE":"U","NORAD_CAT_ID":67842,"ELEMENT_SET_NO":999,"REV_AT_EPOCH":358,"BSTAR":0.0015786,"MEAN_MOTION_DOT":0.00347384,"MEAN_MOTION_DDOT":0}]
